COSMOS 2503             
1 40420U 15009A   26068.69626972  .00002817  00000+0  19590-3 0  9998
2 40420  97.8437 123.7175 0015321 225.7450 134.2520 15.06275973603958
STARLINK-5755           
1 55600U 23020AH  26067.21131571  .00001324  00000+0  11301-3 0  9993
2 55600  43.0059 359.9807 0001061 282.3198  77.7525 15.02545506168844
